NORAD_CAT_ID,OBJECT_NAME,OBJECT_TYPE,EPOCH,MEAN_MOTION,ECCENTRICITY,INCLINATION,RA_OF_ASC_NODE,ARG_OF_PERICENTER,MEAN_ANOMALY,BSTAR,MEAN_MOTION_DOT,MEAN_MOTION_DDOT,TLE_LINE0,TLE_LINE1,TLE_LINE2,SEMIMAJOR_AXIS,PERIOD,APOGEE,PERIGEE,DECAYED
53283.0,STARLINK-4175,PAYLOAD,2023-10-28 03:56:51,15.08828767,0.0001794,53.2154,100.6358,80.677,279.4425,-0.00020708,-3.581e-05,0.0,0 STARLINK-4175,1 53283U 22086AT  23301.16448879 -.00003581  00000-0 -20708-3 0  9994,2 53283  53.2154 100.6358 0001794  80.6770 279.4425 15.08828767 70669,6917.915,95.438,541.021,538.539,0.0
53283.0,STARLINK-4175,PAYLOAD,2023-10-28 18:15:20,15.08835908,0.0001465,53.2156,97.9587,80.6932,279.4226,2.5523e-05,1.18e-06,0.0,0 STARLINK-4175,1 53283U 22086AT  23301.76065007  .00000118  00000-0  25523-4 0  9990,2 53283  53.2156  97.9587 0001465  80.6932 279.4226 15.08835908 70921,6917.893,95.438,540.771,538.744,0.0
53283.0,STARLINK-4175,PAYLOAD,2023-10-29 03:47:38,15.08842312,0.0001385,53.2155,96.1754,81.189,278.9258,0.00023544,3.461e-05,0.0,0 STARLINK-4175,1 53283U 22086AT  23302.15808968  .00003461  00000-0  23544-3 0  9999,2 53283  53.2155  96.1754 0001385  81.1890 278.9258 15.08842312 70811,6917.873,95.437,540.696,538.78,0.0
53283.0,STARLINK-4175,PAYLOAD,2023-10-29 10:09:11,15.0884462,0.0001473,53.2149,94.9862,80.0642,280.0517,0.00031285,4.695e-05,0.0,0 STARLINK-4175,1 53283U 22086AT  23302.42305013  .00004695  00000-0  31285-3 0  9993,2 53283  53.2149  94.9862 0001473  80.0642 280.0517 15.08844620 71021,6917.866,95.437,540.75,538.712,0.0
53283.0,STARLINK-4175,PAYLOAD,2023-10-29 16:30:43,15.0885482,0.0001383,53.215,93.7963,82.4282,277.6867,0.0003162,4.75e-05,0.0,0 STARLINK-4175,1 53283U 22086AT  23302.68800565  .00004750  00000-0  31620-3 0  9998,2 53283  53.2150  93.7963 0001383  82.4282 277.6867 15.08854820 71065,6917.835,95.437,540.657,538.743,0.0
53283.0,STARLINK-4175,PAYLOAD,2023-10-30 09:59:58,15.08847075,0.000147,53.2154,90.525,78.6969,281.4188,0.00033163,4.995e-05,0.0,0 STARLINK-4175,1 53283U 22086AT  23303.41665137  .00004995  00000-0  33163-3 0  9999,2 53283  53.2154  90.5250 0001470  78.6969 281.4188 15.08847075 71006,6917.859,95.437,540.741,538.707,0.0
53283.0,STARLINK-4175,PAYLOAD,2023-10-30 21:07:40,15.0884145,0.0001673,53.2157,88.4432,91.4623,268.6561,0.00010154,1.328e-05,0.0,0 STARLINK-4175,1 53283U 22086AT  23303.88033189  .00001328  00000-0  10154-3 0  9998,2 53283  53.2157  88.4432 0001673  91.4623 268.6561 15.08841450 71241,6917.876,95.437,540.898,538.584,0.0
53283.0,STARLINK-4175,PAYLOAD,2023-10-31 13:01:32,15.08835363,0.0001762,53.2147,85.4688,92.8298,267.2896,8.0438e-07,-2.75e-06,0.0,0 STARLINK-4175,1 53283U 22086AT  23304.54273632 -.00000275  00000-0  80438-6 0  9997,2 53283  53.2147  85.4688 0001762  92.8298 267.2896 15.08835363 71176,6917.895,95.438,540.978,538.541,0.0
53283.0,STARLINK-4175,PAYLOAD,2023-10-31 14:36:55,15.08838054,0.0001456,53.2164,85.1723,89.4736,270.6423,3.0856e-05,2.03e-06,0.0,0 STARLINK-4175,1 53283U 22086AT  23304.60897625  .00000203  00000-0  30856-4 0  9995,2 53283  53.2164  85.1723 0001456  89.4736 270.6423 15.08838054 71355,6917.886,95.438,540.759,538.744,0.0
53283.0,STARLINK-4175,PAYLOAD,2023-10-31 19:23:04,15.08842243,0.0001463,53.2176,84.28,86.3459,273.7701,0.00016373,2.319e-05,0.0,0 STARLINK-4175,1 53283U 22086AT  23304.80769494  .00002319  00000-0  16373-3 0  9996,2 53283  53.2176  84.2800 0001463  86.3459 273.7701 15.08842243 71381,6917.874,95.437,540.751,538.726,0.0
53283.0,STARLINK-4175,PAYLOAD,2023-11-01 14:27:42,15.08847115,0.0001447,53.2171,80.7114,83.3032,276.8124,0.00037422,5.674e-05,0.0,0 STARLINK-4175,1 53283U 22086AT  23305.60257606  .00005674  00000-0  37422-3 0  9997,2 53283  53.2171  80.7114 0001447  83.3032 276.8124 15.08847115 71501,6917.859,95.437,540.725,538.723,0.0
53283.0,STARLINK-4175,PAYLOAD,2023-11-01 16:03:05,15.08851273,0.0001448,53.2173,80.4145,82.7764,277.3393,0.00046569,7.134e-05,0.0,0 STARLINK-4175,1 53283U 22086AT  23305.66881467  .00007134  00000-0  46569-3 0  9996,2 53283  53.2173  80.4145 0001448  82.7764 277.3393 15.08851273 71346,6917.846,95.437,540.713,538.709,0.0
53283.0,STARLINK-4175,PAYLOAD,2023-11-02 01:35:24,15.08846628,0.0001228,53.2166,78.6306,77.2455,282.8675,0.0002969,4.441e-05,0.0,0 STARLINK-4175,1 53283U 22086AT  23306.06625478  .00004441  00000-0  29690-3 0  9993,2 53283  53.2166  78.6306 0001228  77.2455 282.8675 15.08846628 71407,6917.86,95.437,540.575,538.876,0.0
53283.0,STARLINK-4175,PAYLOAD,2023-11-02 12:43:06,15.08841333,0.0001485,53.2187,76.5516,84.8577,275.2585,7.9099e-05,9.71e-06,0.0,0 STARLINK-4175,1 53283U 22086AT  23306.52993691  .00000971  00000-0  79099-4 0  9992,2 53283  53.2187  76.5516 0001485  84.8577 275.2585 15.08841333 71475,6917.876,95.437,540.769,538.714,0.0
53283.0,STARLINK-4175,PAYLOAD,2023-11-02 14:18:29,15.08841401,0.0001498,53.2187,76.255,86.4823,273.634,8.4552e-05,1.058e-05,0.0,0 STARLINK-4175,1 53283U 22086AT  23306.59617656  .00001058  00000-0  84552-4 0  9990,2 53283  53.2187  76.2550 0001498  86.4823 273.6340 15.08841401 71653,6917.876,95.437,540.777,538.705,0.0
53283.0,STARLINK-4175,PAYLOAD,2023-11-02 15:53:52,15.08842824,0.0001498,53.2193,75.9571,87.6091,272.5072,0.00013555,1.87e-05,0.0,0 STARLINK-4175,1 53283U 22086AT  23306.66241628  .00001870  00000-0  13555-3 0  9996,2 53283  53.2193  75.9571 0001498  87.6091 272.5072 15.08842824 71660,6917.872,95.437,540.773,538.7,0.0
53283.0,STARLINK-4175,PAYLOAD,2023-11-03 14:09:16,15.08842195,0.000156,53.219,71.796,98.8008,261.3161,3.2366e-05,2.27e-06,0.0,0 STARLINK-4175,1 53283U 22086AT  23307.58977674  .00000227  00000-0  32366-4 0  9992,2 53283  53.2190  71.7960 0001560  98.8008 261.3161 15.08842195 71807,6917.874,95.437,540.818,538.659,0.0
53283.0,STARLINK-4175,PAYLOAD,2023-11-03 15:44:39,15.08844236,0.0001517,53.2193,71.4987,97.0056,263.1109,6.564e-05,7.57e-06,0.0,0 STARLINK-4175,1 53283U 22086AT  23307.65601565  .00000757  00000-0  65640-4 0  9992,2 53283  53.2193  71.4987 0001517  97.0056 263.1109 15.08844236 71644,6917.867,95.437,540.782,538.683,0.0
53283.0,STARLINK-4175,PAYLOAD,2023-11-04 14:00:04,15.08837338,0.0001268,53.2175,67.3314,86.1824,273.9313,5.265e-06,-2.04e-06,0.0,0 STARLINK-4175,1 53283U 22086AT  23308.58337972 -.00000204  00000-0  52650-5 0  9999,2 53283  53.2175  67.3314 0001268  86.1824 273.9313 15.08837338 71952,6917.889,95.438,540.631,538.876,0.0
53283.0,STARLINK-4175,PAYLOAD,2023-11-04 15:35:26,15.08842342,0.0001341,53.2174,67.0339,84.6413,275.4732,8.4245e-05,1.053e-05,0.0,0 STARLINK-4175,1 53283U 22086AT  23308.64961763  .00001053  00000-0  84245-4 0  9993,2 53283  53.2174  67.0339 0001341  84.6413 275.4732 15.08842342 71799,6917.873,95.437,540.666,538.811,0.0
53283.0,STARLINK-4175,PAYLOAD,2023-11-05 13:50:50,15.08855724,0.0001315,53.2171,62.8717,90.0664,270.0479,0.00025156,3.72e-05,0.0,0 STARLINK-4175,1 53283U 22086AT  23309.57697160  .00003720  00000-0  25156-3 0  9991,2 53283  53.2171  62.8717 0001315  90.0664 270.0479 15.08855724 72102,6917.832,95.437,540.607,538.788,0.0
53283.0,STARLINK-4175,PAYLOAD,2023-11-05 15:26:13,15.08863478,0.0001404,53.2179,62.5728,85.5304,274.5849,0.000341,5.147e-05,0.0,0 STARLINK-4175,1 53283U 22086AT  23309.64320643  .00005147  00000-0  34100-3 0  9992,2 53283  53.2179  62.5728 0001404  85.5304 274.5849 15.08863478 71944,6917.809,95.436,540.645,538.702,0.0
53283.0,STARLINK-4175,PAYLOAD,2023-11-06 00:58:32,15.08856232,0.0001757,53.2176,60.7906,70.7464,289.3718,0.00022617,3.315e-05,0.0,0 STARLINK-4175,1 53283U 22086AT  23310.04064940  .00003315  00000-0  22617-3 0  9998,2 53283  53.2176  60.7906 0001757  70.7464 289.3718 15.08856232 72000,6917.831,95.437,540.911,538.48,0.0
53283.0,STARLINK-4175,PAYLOAD,2023-11-06 13:41:38,15.08806064,0.0001215,53.2169,58.4126,84.1669,275.9462,-0.0005489,-9.005e-05,0.0,0 STARLINK-4175,1 53283U 22086AT  23310.57058776 -.00009005  00000-0 -54890-3 0  9998,2 53283  53.2169  58.4126 0001215  84.1669 275.9462 15.08806064 72257,6917.984,95.44,540.69,539.009,0.0
53283.0,STARLINK-4175,PAYLOAD,2023-11-07 11:57:04,15.08804837,0.0001434,53.218,54.2511,59.7522,300.3612,-0.00038371,-6.384e-05,0.0,0 STARLINK-4175,1 53283U 22086AT  23311.49796320 -.00006384  00000-0 -38371-3 0  9997,2 53283  53.2180  54.2511 0001434  59.7522 300.3612 15.08804837 72224,6917.988,95.44,540.845,538.861,0.0
53283.0,STARLINK-4175,PAYLOAD,2023-11-07 13:32:27,15.08809856,0.0001237,53.2175,53.9525,68.7817,291.3308,-0.00028353,-4.794e-05,0.0,0 STARLINK-4175,1 53283U 22086AT  23311.56420210 -.00004794  00000-0 -28353-3 0  9999,2 53283  53.2175  53.9525 0001237  68.7817 291.3308 15.08809856 72404,6917.973,95.439,540.693,538.982,0.0
53283.0,STARLINK-4175,PAYLOAD,2023-11-08 11:47:51,15.08837288,0.0001833,53.2184,49.7889,69.5442,290.5747,0.00044179,6.75e-05,0.0,0 STARLINK-4175,1 53283U 22086AT  23312.49156621  .00006750  00000-0  44179-3 0  9990,2 53283  53.2184  49.7889 0001833  69.5442 290.5747 15.08837288 72379,6917.889,95.438,541.022,538.486,0.0
53283.0,STARLINK-4175,PAYLOAD,2023-11-08 13:23:14,15.08850052,0.0001504,53.2189,49.4905,80.6412,279.4751,0.00092619,0.00014487,0.0,0 STARLINK-4175,1 53283U 22086AT  23312.55780385  .00014487  00000-0  92619-3 0  9995,2 53283  53.2189  49.4905 0001504  80.6412 279.4751 15.08850052 72551,6917.85,95.437,540.755,538.674,0.0
53283.0,STARLINK-4175,PAYLOAD,2023-11-09 11:38:37,15.0885845,0.0001563,53.2191,45.3314,83.323,276.794,0.0005063,7.783e-05,0.0,0 STARLINK-4175,1 53283U 22086AT  23313.48515374  .00007783  00000-0  50630-3 0  9990,2 53283  53.2191  45.3314 0001563  83.3230 276.7940 15.08858450 72523,6917.824,95.436,540.77,538.608,0.0
53283.0,STARLINK-4175,PAYLOAD,2023-11-09 13:14:00,15.08869168,0.0001275,53.2183,45.0319,86.0721,274.0417,0.0006578,0.00010205,0.0,0 STARLINK-4175,1 53283U 22086AT  23313.55139219  .00010205  00000-0  65780-3 0  9993,2 53283  53.2183  45.0319 0001275  86.0721 274.0417 15.08869168 72709,6917.791,95.436,540.538,538.774,0.0
